ONEWEB-0504             
1 54122U 22138K   26199.81968196  .00000064  00000+0  12860-3 0  9994
2 54122  87.9195 298.6691 0001904 106.1255 254.0088 13.19726147181008
ONEWEB-0505             
1 54123U 22138L   26199.81651264  .00000036  00000+0  57773-4 0  9992
2 54123  87.9192 298.6702 0002092 114.0236 246.1116 13.19723252180989
ONEWEB-0506             
1 54124U 22138M   26199.79126559 -.00000010  00000+0 -58125-4 0  9990
2 54124  87.9195 298.6732 0002078 110.1639 249.9717 13.19725126180973
ONEWEB-0507             
1 54125U 22138N   26199.81177948 -.00000008  00000+0 -52419-4 0  9999
2 54125  87.9186 298.6781 0002115 107.0994 253.0370 13.19726681181024
ONEWEB-0508             
1 54126U 22138P   26199.80862911 -.00000005  00000+0 -44407-4 0  9995
2 54126  87.9186 298.6786 0002277 109.7679 250.3699 13.19726070181002
ONEWEB-0509             
1 54127U 22138Q   26199.78335344  .00000021  00000+0  19695-4 0  9995
2 54127  87.9196 298.6763 0002077 105.4809 254.6553 13.19724213180973
ONEWEB-0510             
1 54128U 22138R   26199.72259330  .00000033  00000+0  49661-4 0  9999
2 54128  87.9177 268.1524 0001912  84.0777 276.0575 13.20770546183442
ONEWEB-0511             
1 54129U 22138S   26199.78018884  .00000028  00000+0  38588-4 0  9993
2 54129  87.9191 298.6783 0001789 105.0550 255.0781 13.19723463181009
ONEWEB-0512             
1 54130U 22138T   26199.77228661 -.00000163  00000+0 -44041-3 0  9992
2 54130  87.9184 298.6829 0001957 110.9002 249.2340 13.19724964180976
ONEWEB-0513             
1 54131U 22138U   26199.76491549  .00000027  00000+0  33961-4 0  9996
2 54131  87.9192 298.6246 0001734 127.9427 232.1863 13.20269878180882
ONEWEB-0514             
1 54132U 22138V   26199.78808866 -.00000137  00000+0 -37421-3 0  9991
2 54132  87.9194 298.6760 0001958  97.3733 262.7622 13.19724834180994
ONEWEB-0515             
1 54133U 22138W   26199.70913606 -.00000021  00000+0 -82494-4 0  9996
2 54133  87.9186 268.1508 0002711  84.5859 275.5583 13.20771842183469
ONEWEB-0516             
1 54134U 22138X   26199.76281611  .00000081  00000+0  16892-3 0  9999
2 54134  87.9185 298.6848 0002155 101.6164 258.5211 13.19724203180997
ONEWEB-0517             
1 54135U 22138Y   26199.81810269  .00000020  00000+0  17661-4 0  9992
2 54135  87.9192 298.6685 0001706  99.5344 260.5982 13.19726034181006
ONEWEB-0518             
1 54136U 22138Z   26199.76124214  .00000037  00000+0  59229-4 0  9999
2 54136  87.9187 298.6872 0002230 100.2733 259.8652 13.19724437180991
ONEWEB-0519             
1 54137U 22138AA  26199.78650476  .00000015  00000+0  44925-5 0  9990
2 54137  87.9192 298.6759 0001817  99.0113 261.1225 13.19723680181003
